{"type":"FeatureCollection","title":"Vietnam provinces (WGS84) - Full 63 Provinces","note":"Converted from Highcharts vn-all.geo.json (UTM48N to EPSG:4326) with full 63 provinces mapped to standard Vietnamese names.","features":[{"type":"Feature","properties":{"name":"Quảng Ninh","name_local":"Quảng Ninh","iso_3166_2":"VN-13","hc-key":"vn-qn"},"geometry":{"type":"MultiPolygon","coordinates":[[[[106.76636,20.84588],[106.8065,20.8073],[106.78045,20.81166],[106.74768,20.86107],[106.76636,20.84588]]],[[[107.34545,20.88798],[107.38169,20.88748],[107.3886,20.86558],[107.36095,20.85916],[107.34545,20.88798]]],[[[106.84072,20.88054],[106.88607,20.79554],[106.84696,20.79733],[106.81996,20.8426],[106.77085,20.8581],[106.78475,20.9302],[106.82519,20.91478],[106.84072,20.88054]]],[[[107.47763,20.81391],[107.47007,20.8835],[107.51665,20.89509],[107.54958,20.95591],[107.54461,20.9192],[107.47763,20.81391]]],[[[106.76212,20.9795],[106.76029,20.94681],[106.6937,20.96111],[106.69253,20.98566],[106.76212,20.9795]]],[[[107.79245,20.99161],[107.7378,20.938],[107.75892,20.98262],[107.74509,21.01962],[107.79245,20.99161]]],[[[107.53215,21.04064],[107.55818,21.0348],[107.52919,20.95076],[107.49815,20.91579],[107.39489,20.89684],[107.49171,20.96494],[107.50425,21.02062],[107.53215,21.04064]]],[[[107.58137,21.11755],[107.57208,21.08364],[107.5223,21.0585],[107.55372,21.11389],[107.58137,21.11755]]],[[[107.58965,21.00844],[107.56658,21.01696],[107.59092,21.08199],[107.63208,21.11133],[107.58965,21.00844]]],[[[107.8093,21.34686],[107.71116,21.30761],[107.72599,21.32372],[107.78332,21.35683],[107.8093,21.34686]]],[[[107.9979,21.39808],[107.84133,21.34905],[107.86829,21.38945],[107.99801,21.40353],[107.9979,21.39808]]],[[[106.65079,21.01741],[106.64353,21.01749],[106.60588,21.02602],[106.57701,21.04129],[106.47839,21.05308],[106.4451,21.06427],[106.44108,21.09838],[106.49514,21.13063],[106.5452,21.19424],[106.75991,21.16216],[106.82385,21.16284],[106.9638,21.19807],[106.98778,21.2523],[106.9988,21.31486],[107.06488,21.36039],[107.12758,21.37051],[107.2154,21.40617],[107.24207,21.43715],[107.24573,21.48616],[107.22452,21.52732],[107.24097,21.55571],[107.33365,21.61303],[107.348,21.5992],[107.40996,21.646],[107.44641,21.64683],[107.46158,21.5962],[107.50941,21.58186],[107.53318,21.60875],[107.61326,21.60615],[107.69082,21.62534],[107.74533,21.65714],[107.83241,21.63933],[107.85496,21.60081],[107.99096,21.48537],[107.92899,21.44289],[107.91885,21.51798],[107.86231,21.52985],[107.84849,21.49331],[107.82085,21.49378],[107.78359,21.52437],[107.78671,21.45894],[107.76772,21.45517],[107.74797,21.41054],[107.63547,21.38374],[107.64201,21.34277],[107.60843,21.33512],[107.59906,21.29848],[107.5627,21.29767],[107.53445,21.34579],[107.50457,21.29855],[107.41492,21.32847],[107.44343,21.294],[107.3675,21.27328],[107.35457,21.19171],[107.38787,21.18443],[107.37517,21.11648],[107.3543,21.08271],[107.37376,21.02794],[107.33422,21.00532],[107.24566,21.00243],[107.1927,20.9527],[107.14887,20.93145],[107.06666,20.96517],[107.09471,21.00026],[107.14888,21.03366],[107.1228,21.03671],[107.05717,21.01435],[107.02551,21.03381],[107.03956,20.99957],[107.01722,20.95759],[106.94754,20.95431],[106.87408,20.99738],[106.8537,20.99216],[106.92267,20.93824],[106.94254,20.90394],[106.8875,20.91001],[106.86831,20.88296],[106.83272,20.93787],[106.80654,20.93269],[106.77202,20.95759],[106.81714,20.96938],[106.78574,21.01333],[106.73078,21.03025],[106.71743,21.00585],[106.65079,21.01741]]],[[[106.9479,20.86981],[106.99406,20.85156],[107.0232,20.86212],[107.04309,20.8319],[107.08789,20.82182],[107.09466,20.78767],[107.03641,20.76657],[107.06806,20.74983],[107.04571,20.70377],[106.99712,20.7534],[106.98542,20.74536],[106.90955,20.81845],[106.9479,20.86981]]],[[[107.44644,21.21221],[107.45179,21.27208],[107.46784,21.27593],[107.52378,21.2315],[107.5291,21.20281],[107.60348,21.21939],[107.54719,21.15622],[107.52402,21.16065],[107.47066,21.09604],[107.38859,21.04817],[107.37281,21.05929],[107.40293,21.12699],[107.41857,21.19626],[107.44644,21.21221]]]]}},{"type":"Feature","properties":{"name":"Khánh Hòa","name_local":"Khánh Hòa","iso_3166_2":"VN-34","hc-key":"vn-kh"},"geometry":{"type":"MultiPolygon","coordinates":[[[[109.32872,12.22177],[109.34913,12.20103],[109.28805,12.18838],[109.2458,12.22851],[109.27358,12.23488],[109.32872,12.22177]]],[[[109.40514,12.5703],[109.38423,12.56248],[109.31166,12.61402],[109.3202,12.62749],[109.3825,12.62375],[109.40514,12.5703]]],[[[109.38472,12.83329],[109.3768,12.77627],[109.42107,12.69116],[109.47175,12.65629],[109.45066,12.63895],[109.45087,12.57091],[109.43016,12.57533],[109.40337,12.62885],[109.42457,12.65299],[109.40299,12.68737],[109.37643,12.6742],[109.37583,12.63883],[109.34153,12.65981],[109.38523,12.70264],[109.36321,12.79282],[109.30425,12.75024],[109.20548,12.64702],[109.20529,12.55038],[109.23228,12.59079],[109.24882,12.58508],[109.23284,12.54042],[109.24895,12.50886],[109.29831,12.47813],[109.29891,12.43048],[109.34542,12.39571],[109.29762,12.35156],[109.21597,12.43995],[109.18443,12.4595],[109.1495,12.44098],[109.17655,12.39973],[109.20681,12.38701],[109.21424,12.33245],[109.24148,12.3048],[109.21921,12.29698],[109.20436,12.23323],[109.22459,12.20025],[109.20914,12.18551],[109.22637,12.13761],[109.21085,12.11879],[109.21421,12.06837],[109.24905,11.99706],[109.2873,11.96789],[109.26591,11.92603],[109.27739,11.8646],[109.22509,11.879],[109.21588,11.90908],[109.21891,12.01521],[109.17643,12.12884],[109.1637,12.11133],[109.17662,12.0526],[109.21185,12.00579],[109.19853,11.94882],[109.15629,11.89908],[109.1369,11.89664],[109.13175,11.83001],[109.16345,11.8241],[109.19731,11.86989],[109.20435,11.78811],[109.11468,11.79759],[109.08599,11.81978],[109.06605,11.87317],[109.03339,11.90767],[108.90522,11.93672],[108.87782,11.9548],[108.80968,12.1246],[108.77831,12.15771],[108.71912,12.18167],[108.70652,12.27037],[108.68205,12.30339],[108.66772,12.36896],[108.66606,12.44798],[108.6762,12.47917],[108.77625,12.49685],[108.83545,12.47014],[108.85507,12.48484],[108.87985,12.56618],[108.87496,12.60983],[108.90655,12.68154],[108.97056,12.69556],[109.03665,12.75311],[109.10353,12.7725],[109.15437,12.82751],[109.19631,12.84726],[109.32265,12.85338],[109.38472,12.83329]]]]}},{"type":"Feature","properties":{"name":"Tiền Giang","name_local":"Tiền Giang","iso_3166_2":"VN-46","hc-key":"vn-tg"},"geometry":{"type":"MultiPolygon","coordinates":[[[[106.7385,10.2288],[106.69042,10.25224],[106.55968,10.27472],[106.70294,10.27537],[106.74695,10.26286],[106.7385,10.2288]]],[[[105.84885,10.30193],[105.83931,10.34426],[105.9486,10.48041],[105.96261,10.55405],[106.05084,10.54422],[106.09912,10.54815],[106.12681,10.57944],[106.16686,10.59294],[106.27165,10.58707],[106.3143,10.56507],[106.35541,10.50623],[106.44073,10.47174],[106.45288,10.41575],[106.58517,10.41376],[106.61561,10.4368],[106.65577,10.47342],[106.67071,10.43242],[106.71363,10.46766],[106.74119,10.46751],[106.78763,10.39359],[106.7954,10.30624],[106.77594,10.27498],[106.70439,10.289],[106.59832,10.28818],[106.42211,10.31629],[106.34228,10.33709],[106.27881,10.31689],[106.2044,10.31581],[106.15887,10.29824],[106.1065,10.29569],[106.03493,10.31912],[105.98807,10.31927],[105.95491,10.28799],[105.89842,10.29088],[105.84885,10.30193]]]]}},{"type":"Feature","properties":{"name":"Bà Rịa - Vũng Tàu","name_local":"Bà Rịa - Vũng Tàu","iso_3166_2":"VN-43","hc-key":"vn-bv"},"geometry":{"type":"MultiPolygon","coordinates":[[[[107.20264,10.43738],[107.1665,10.39126],[107.1361,10.37782],[107.08753,10.32358],[107.0797,10.39047],[107.1557,10.4227],[107.17252,10.46486],[107.20264,10.43738]]],[[[107.01987,10.51224],[107.03381,10.53534],[107.02481,10.63496],[107.11602,10.66573],[107.14374,10.686],[107.15093,10.72823],[107.24088,10.76987],[107.28087,10.76821],[107.29145,10.70813],[107.31335,10.68752],[107.35888,10.69127],[107.45766,10.80095],[107.48246,10.79803],[107.51658,10.75548],[107.57882,10.61454],[107.58675,10.57357],[107.53113,10.51266],[107.44815,10.47377],[107.33365,10.45418],[107.27248,10.37825],[107.19001,10.40473],[107.2164,10.43456],[107.17536,10.47712],[107.14222,10.46643],[107.10241,10.48988],[107.03203,10.47397],[107.02531,10.50129],[107.01987,10.51224]]],[[[107.00269,10.62556],[107.02461,10.60359],[107.01193,10.56276],[106.9913,10.56971],[106.99717,10.62423],[107.00269,10.62556]]]]}},{"type":"Feature","properties":{"name":"Bình Thuận","name_local":"Bình Thuận","iso_3166_2":"VN-40","hc-key":"vn-bu"},"geometry":{"type":"MultiPolygon","coordinates":[[[[108.96596,10.51703],[108.93965,10.50374],[108.92622,10.52978],[108.94301,10.55136],[108.96596,10.51703]]],[[[107.58675,10.57357],[107.57882,10.61454],[107.51658,10.75548],[107.56248,10.80146],[107.59048,10.85031],[107.58825,10.91169],[107.55711,10.98012],[107.53106,11.00079],[107.47724,11.00123],[107.43063,11.03843],[107.51086,11.22048],[107.56982,11.32768],[107.61019,11.36141],[107.69139,11.32796],[107.75619,11.3151],[108.01018,11.30172],[108.05267,11.2713],[108.05342,11.21132],[108.09215,11.2191],[108.15218,11.28116],[108.25049,11.30599],[108.33544,11.36908],[108.31545,11.43199],[108.3188,11.48236],[108.38699,11.52381],[108.51413,11.52775],[108.58015,11.50515],[108.61958,11.5646],[108.69671,11.54728],[108.71524,11.48575],[108.76322,11.45926],[108.7722,11.40739],[108.86857,11.38843],[108.90633,11.32393],[108.85679,11.33411],[108.78736,11.30096],[108.75782,11.25776],[108.72925,11.18185],[108.65626,11.19228],[108.57747,11.17962],[108.51351,11.13814],[108.47249,11.05279],[108.36871,11.02263],[108.34448,10.95341],[108.29991,10.91302],[108.25897,10.95161],[108.10692,10.91776],[108.06503,10.86776],[108.03512,10.77265],[107.99856,10.69941],[107.93673,10.71908],[107.88296,10.71685],[107.82346,10.69286],[107.78179,10.65779],[107.66693,10.60426],[107.58675,10.57357]]]]}},{"type":"Feature","properties":{"name":"TP. Hồ Chí Minh","name_local":"TP. Hồ Chí Minh","iso_3166_2":"VN-SG","hc-key":"vn-hc"},"geometry":{"type":"MultiPolygon","coordinates":[[[[106.94817,10.50723],[106.92148,10.42555],[106.93672,10.4391],[106.97784,10.40475],[106.88808,10.37119],[106.87463,10.42583],[106.89278,10.46528],[106.88889,10.50486],[106.92758,10.521],[106.94817,10.50723]]],[[[106.92243,10.57968],[106.9222,10.54286],[106.89484,10.57712],[106.90278,10.52251],[106.85615,10.56235],[106.87728,10.63588],[106.92944,10.59737],[106.92243,10.57968]]],[[[107.02531,10.50129],[106.99211,10.48104],[107.01987,10.51224],[107.02531,10.50129]]],[[[106.36306,10.98236],[106.41869,11.06533],[106.43003,11.12394],[106.51436,11.1358],[106.57468,11.04955],[106.61865,11.00975],[106.71181,10.88101],[106.73523,10.87406],[106.79883,10.89416],[106.83605,10.88711],[106.88113,10.81318],[106.88082,10.76272],[106.82845,10.77121],[106.78972,10.75371],[106.75396,10.77301],[106.75771,10.70478],[106.83606,10.66068],[106.89266,10.66989],[106.96395,10.60534],[106.98439,10.56702],[107.01167,10.52184],[106.97277,10.47435],[106.9374,10.54822],[106.94324,10.60002],[106.88152,10.65222],[106.82899,10.63071],[106.77277,10.68696],[106.73675,10.65852],[106.77229,10.60375],[106.7514,10.56704],[106.78607,10.60095],[106.75196,10.66525],[106.77541,10.66649],[106.84819,10.61423],[106.83959,10.55972],[106.86836,10.52954],[106.86397,10.48728],[106.87484,10.45993],[106.83219,10.47246],[106.85951,10.43138],[106.84006,10.40557],[106.79201,10.43722],[106.75923,10.48787],[106.7514,10.56704],[106.74442,10.55207],[106.74342,10.61756],[106.71051,10.65184],[106.64562,10.63855],[106.6113,10.66874],[106.52324,10.71011],[106.49439,10.73617],[106.52232,10.80288],[106.52532,10.85062],[106.47738,10.92452],[106.36306,10.98236]]]]}},{"type":"Feature","properties":{"name":"Bến Tre","name_local":"Bến Tre","iso_3166_2":"VN-50","hc-key":"vn-br"},"geometry":{"type":"MultiPolygon","coordinates":[[[[106.54383,9.83822],[106.52044,9.83832],[106.49722,9.87526],[106.4218,9.9329],[106.48634,9.9026],[106.54383,9.83822]]],[[[106.1187,10.23834],[106.07331,10.26032],[105.95491,10.28799],[105.98807,10.31927],[106.03493,10.31912],[106.1065,10.29569],[106.15887,10.29824],[106.2044,10.31581],[106.27881,10.31689],[106.34228,10.33709],[106.42211,10.31629],[106.47981,10.28056],[106.72044,10.20024],[106.79732,10.15754],[106.79155,10.10983],[106.73756,10.05419],[106.7045,10.0489],[106.70467,10.083],[106.66862,10.03271],[106.64492,9.9728],[106.59129,9.98125],[106.54741,10.01556],[106.49796,10.03626],[106.44313,10.08971],[106.3597,10.22105],[106.33089,10.24982],[106.29237,10.26225],[106.35003,10.21427],[106.36906,10.15552],[106.46216,10.03505],[106.561,9.97866],[106.61448,9.93884],[106.69682,9.89615],[106.68286,9.85529],[106.66237,9.88404],[106.65806,9.84859],[106.61114,9.81744],[106.56311,9.84222],[106.50424,9.90525],[106.39445,9.97394],[106.14484,10.2287],[106.1187,10.23834]]]]}},{"type":"Feature","properties":{"name":"Sóc Trăng","name_local":"Sóc Trăng","iso_3166_2":"VN-52","hc-key":"vn-st"},"geometry":{"type":"MultiPolygon","coordinates":[[[[106.66936,8.75301],[106.63913,8.73813],[106.65541,8.69849],[106.60192,8.69463],[106.599,8.65235],[106.55935,8.68116],[106.59797,8.73285],[106.65845,8.7667],[106.66936,8.75301]]],[[[106.10739,9.74714],[106.1553,9.67875],[106.21011,9.62125],[106.29247,9.58684],[106.28406,9.54321],[106.24417,9.53517],[106.24976,9.55971],[106.19769,9.61038],[106.2264,9.56525],[106.19618,9.57218],[106.1264,9.67203],[106.10739,9.74714]]],[[[105.90151,9.91696],[106.07301,9.74861],[106.09346,9.6926],[106.19745,9.54079],[106.20541,9.45752],[106.16954,9.41807],[106.19273,9.36887],[106.01807,9.31483],[105.86817,9.25518],[105.83272,9.36444],[105.80117,9.39044],[105.69259,9.38385],[105.5992,9.41814],[105.57728,9.45912],[105.56928,9.61062],[105.67385,9.64046],[105.7923,9.71253],[105.81982,9.71929],[105.90151,9.91696]]]]}},{"type":"Feature","properties":{"name":"Phú Thọ","name_local":"Phú Thọ","iso_3166_2":"VN-68","hc-key":"vn-pt"},"geometry":{"type":"Polygon","coordinates":[[[104.82823,21.32938],[104.89514,21.36488],[104.91987,21.39762],[104.88775,21.52303],[104.89063,21.56666],[104.92266,21.62121],[104.99848,21.66077],[105.07287,21.67847],[105.11227,21.70435],[105.17642,21.66749],[105.23322,21.61834],[105.31756,21.51458],[105.34359,21.4341],[105.39158,21.40945],[105.45101,21.32341],[105.45821,21.30021],[105.42905,21.27711],[105.41459,21.30714],[105.35347,21.30183],[105.34314,21.23777],[105.28488,21.19152],[105.30655,21.12604],[105.28462,21.05382],[105.30777,21.01151],[105.32948,20.98148],[105.33225,20.91875],[105.29596,20.91609],[105.21038,20.93804],[105.1146,20.9504],[105.04205,21.00906],[104.94184,21.05405],[104.90841,21.10175],[104.87204,21.14945],[104.86614,21.25034],[104.82823,21.32938]]]}},{"type":"Feature","properties":{"name":"Yên Bái","name_local":"Yên Bái","iso_3166_2":"VN-06","hc-key":"vn-yb"},"geometry":{"type":"Polygon","coordinates":[[[105.11227,21.70435],[105.07287,21.67847],[104.99848,21.66077],[104.92266,21.62121],[104.89063,21.56666],[104.88775,21.52303],[104.91987,21.39762],[104.89514,21.36488],[104.82823,21.32938],[104.77875,21.33478],[104.74811,21.38381],[104.68989,21.38099],[104.60392,21.41353],[104.55881,21.40387],[104.49052,21.36551],[104.44539,21.36809],[104.3564,21.41685],[104.32861,21.44401],[104.31089,21.49574],[104.31786,21.56393],[104.34944,21.6704],[104.30696,21.70976],[104.23277,21.6699],[104.17012,21.65869],[104.01683,21.68512],[103.92468,21.71999],[103.95187,21.79241],[103.91346,21.8535],[103.98416,21.97391],[104.06927,21.92125],[104.13213,21.91478],[104.2053,21.89197],[104.23268,21.96026],[104.3513,21.90625],[104.3937,21.89823],[104.43592,21.93382],[104.44009,21.98837],[104.38114,22.09994],[104.39854,22.13545],[104.4746,22.14389],[104.55377,22.09505],[104.6092,22.15381],[104.64574,22.17298],[104.62795,22.25746],[104.68944,22.2644],[104.77013,22.18138],[104.84772,22.17057],[104.88438,22.0888],[104.9824,22.00704],[104.99848,21.97433],[104.99702,21.92388],[105.07587,21.83798],[105.10066,21.7957],[105.08604,21.75072],[105.11227,21.70435]]]}},{"type":"Feature","properties":{"name":"Hải Dương","name_local":"Hải Dương","iso_3166_2":"VN-61","hc-key":"vn-hd"},"geometry":{"type":"Polygon","coordinates":[[[106.15269,20.99834],[106.22662,20.98556],[106.27892,20.99063],[106.3067,21.01359],[106.31446,21.07078],[106.29758,21.13362],[106.33003,21.18789],[106.38558,21.22289],[106.45837,21.23318],[106.51346,21.2177],[106.5452,21.19424],[106.49514,21.13063],[106.44108,21.09838],[106.4451,21.06427],[106.47839,21.05308],[106.57701,21.04129],[106.60588,21.02602],[106.58635,20.96351],[106.53674,20.9367],[106.5348,20.88901],[106.49681,20.86072],[106.50658,20.82247],[106.54119,20.80444],[106.53517,20.78268],[106.46065,20.72063],[106.41718,20.71963],[106.2576,20.69633],[106.19145,20.75951],[106.13809,20.79532],[106.12242,20.83223],[106.15939,20.92605],[106.15269,20.99834]]]}},{"type":"Feature","properties":{"name":"Bắc Ninh","name_local":"Bắc Ninh","iso_3166_2":"VN-56","hc-key":"vn-bn"},"geometry":{"type":"Polygon","coordinates":[[[106.29758,21.13362],[106.31446,21.07078],[106.3067,21.01359],[106.27892,20.99063],[106.22662,20.98556],[106.15269,20.99834],[106.07723,21.00157],[106.00457,20.9911],[106.01074,21.0456],[105.92848,21.12787],[105.91725,21.192],[105.94522,21.24774],[106.02932,21.2118],[106.2137,21.18195],[106.29758,21.13362]]]}},{"type":"Feature","properties":{"name":"Hưng Yên","name_local":"Hưng Yên","iso_3166_2":"VN-","hc-key":"vn-317"},"geometry":{"type":"Polygon","coordinates":[[[106.00457,20.9911],[106.07723,21.00157],[106.15269,20.99834],[106.15939,20.92605],[106.12242,20.83223],[106.13809,20.79532],[106.19145,20.75951],[106.2576,20.69633],[106.20666,20.6667],[106.13859,20.66717],[106.11226,20.63189],[106.06002,20.61722],[106.0313,20.65284],[106.03023,20.70875],[106.00707,20.71297],[105.96807,20.73228],[105.95682,20.78688],[105.92066,20.80071],[105.9122,20.84029],[105.92408,20.88658],[105.89664,20.90718],[105.91296,20.96572],[106.00457,20.9911]]]}},{"type":"Feature","properties":{"name":"Ninh Bình","name_local":"Ninh Bình","iso_3166_2":"VN-18","hc-key":"vn-nb"},"geometry":{"type":"Polygon","coordinates":[[[106.11375,20.03337],[106.08299,19.96539],[106.03416,19.99568],[106.07048,20.03364],[106.0505,20.06648],[105.98275,20.07778],[105.91949,20.11902],[105.86184,20.13431],[105.75531,20.19615],[105.54215,20.36738],[105.56246,20.38504],[105.60147,20.37673],[105.65623,20.33427],[105.6952,20.32048],[105.71551,20.3354],[105.70427,20.40771],[105.77096,20.44151],[105.84172,20.41937],[105.90214,20.36316],[105.95113,20.337],[105.9638,20.28239],[106.05743,20.23959],[106.09364,20.253],[106.1555,20.21716],[106.15195,20.1272],[106.11375,20.03337]]]}},{"type":"Feature","properties":{"name":"Hà Nam","name_local":"Hà Nam","iso_3166_2":"VN-63","hc-key":"vn-hm"},"geometry":{"type":"Polygon","coordinates":[[[105.95113,20.337],[105.90214,20.36316],[105.84172,20.41937],[105.80884,20.49315],[105.78607,20.56824],[105.8169,20.64717],[105.92137,20.67801],[105.98662,20.68719],[106.00707,20.71297],[106.03023,20.70875],[106.0313,20.65284],[106.06002,20.61722],[106.11226,20.63189],[106.13646,20.57584],[106.16809,20.547],[106.18502,20.49099],[106.07067,20.48355],[106.0268,20.41292],[105.96899,20.41871],[105.95291,20.39153],[105.95113,20.337]]]}},{"type":"Feature","properties":{"name":"Hòa Bình","name_local":"Hòa Bình","iso_3166_2":"VN-14","hc-key":"vn-ho"},"geometry":{"type":"Polygon","coordinates":[[[105.78607,20.56824],[105.80884,20.49315],[105.84172,20.41937],[105.77096,20.44151],[105.70427,20.40771],[105.71551,20.3354],[105.6952,20.32048],[105.65623,20.33427],[105.60147,20.37673],[105.56246,20.38504],[105.54215,20.36738],[105.45545,20.38535],[105.3081,20.45658],[105.2127,20.51808],[105.165,20.57676],[105.1375,20.59042],[105.06654,20.57547],[104.93912,20.59047],[104.84352,20.62586],[104.8391,20.69676],[104.85791,20.72813],[104.97385,20.72955],[105.07677,20.7718],[105.08695,20.8127],[105.01299,20.86045],[104.91285,20.96405],[104.88086,21.02266],[104.88229,21.06083],[104.90841,21.10175],[104.94184,21.05405],[105.04205,21.00906],[105.1146,20.9504],[105.21038,20.93804],[105.29596,20.91609],[105.33225,20.91875],[105.32948,20.98148],[105.30777,21.01151],[105.37604,21.02228],[105.46458,21.01116],[105.50516,20.98786],[105.53104,20.91552],[105.50759,20.84606],[105.53213,20.81463],[105.61312,20.76118],[105.67925,20.63823],[105.75439,20.6011],[105.78607,20.56824]]]}},{"type":"Feature","properties":{"name":"Vĩnh Phúc","name_local":"Vĩnh Phúc","iso_3166_2":"VN-70","hc-key":"vn-vc"},"geometry":{"type":"Polygon","coordinates":[[[105.42905,21.27711],[105.45821,21.30021],[105.45101,21.32341],[105.39158,21.40945],[105.34359,21.4341],[105.31756,21.51458],[105.39327,21.49534],[105.46028,21.49653],[105.53904,21.52083],[105.57701,21.54388],[105.63651,21.48913],[105.73958,21.41782],[105.77278,21.36314],[105.76644,21.26365],[105.78054,21.17905],[105.76272,21.10552],[105.6569,21.16049],[105.51449,21.1678],[105.45648,21.20887],[105.42905,21.27711]]]}},{"type":"Feature","properties":{"name":"Hà Nội","name_local":"Hà Nội","iso_3166_2":"VN-HN","hc-key":"vn-318"},"geometry":{"type":"Polygon","coordinates":[[[105.921,21.32831],[105.94112,21.28866],[105.94522,21.24774],[105.91725,21.192],[105.92848,21.12787],[106.01074,21.0456],[106.00457,20.9911],[105.91296,20.96572],[105.89664,20.90718],[105.92408,20.88658],[105.9122,20.84029],[105.92066,20.80071],[105.95682,20.78688],[105.96807,20.73228],[106.00707,20.71297],[105.98662,20.68719],[105.92137,20.67801],[105.8169,20.64717],[105.78607,20.56824],[105.75439,20.6011],[105.67925,20.63823],[105.61312,20.76118],[105.53213,20.81463],[105.50759,20.84606],[105.53104,20.91552],[105.50516,20.98786],[105.46458,21.01116],[105.37604,21.02228],[105.30777,21.01151],[105.28462,21.05382],[105.30655,21.12604],[105.28488,21.19152],[105.34314,21.23777],[105.35347,21.30183],[105.41459,21.30714],[105.42905,21.27711],[105.45648,21.20887],[105.51449,21.1678],[105.6569,21.16049],[105.76272,21.10552],[105.78054,21.17905],[105.76644,21.26365],[105.77278,21.36314],[105.84846,21.36414],[105.921,21.32831]]]}},{"type":"Feature","properties":{"name":"Bắc Giang","name_local":"Bắc Giang","iso_3166_2":"VN-54","hc-key":"vn-bg"},"geometry":{"type":"Polygon","coordinates":[[[105.94522,21.24774],[105.94112,21.28866],[105.921,21.32831],[105.971,21.40846],[106.01907,21.41226],[106.05125,21.43387],[106.07214,21.50327],[106.03939,21.60844],[106.06726,21.6328],[106.14444,21.62138],[106.16736,21.57078],[106.16548,21.51763],[106.29186,21.47717],[106.35253,21.42353],[106.39899,21.41088],[106.46033,21.43081],[106.48984,21.47007],[106.52266,21.54474],[106.55953,21.58666],[106.63118,21.60914],[106.68208,21.59909],[106.74706,21.54936],[106.8117,21.59228],[106.8394,21.59334],[106.85768,21.54135],[106.92196,21.44522],[106.99621,21.44572],[107.02436,21.37588],[107.06488,21.36039],[106.9988,21.31486],[106.98778,21.2523],[106.9638,21.19807],[106.82385,21.16284],[106.75991,21.16216],[106.5452,21.19424],[106.51346,21.2177],[106.45837,21.23318],[106.38558,21.22289],[106.33003,21.18789],[106.29758,21.13362],[106.2137,21.18195],[106.02932,21.2118],[105.94522,21.24774]]]}},{"type":"Feature","properties":{"name":"Thái Bình","name_local":"Thái Bình","iso_3166_2":"VN-20","hc-key":"vn-tb"},"geometry":{"type":"Polygon","coordinates":[[[106.18502,20.49099],[106.16809,20.547],[106.13646,20.57584],[106.11226,20.63189],[106.13859,20.66717],[106.20666,20.6667],[106.2576,20.69633],[106.41718,20.71963],[106.44818,20.62804],[106.46964,20.60059],[106.5378,20.61227],[106.59318,20.64721],[106.62761,20.6169],[106.62155,20.59106],[106.51828,20.54156],[106.56731,20.52476],[106.57986,20.4783],[106.56227,20.45529],[106.59401,20.44819],[106.57295,20.36795],[106.59223,20.27508],[106.58201,20.26427],[106.54906,20.29183],[106.54906,20.29183],[106.52183,20.31388],[106.50291,20.30041],[106.45077,20.28722],[106.34886,20.36437],[106.27773,20.32946],[106.26485,20.34455],[106.27258,20.40585],[106.21913,20.41304],[106.21528,20.47442],[106.18502,20.49099]]]}},{"type":"Feature","properties":{"name":"Lâm Đồng","name_local":"Lâm Đồng","iso_3166_2":"VN-35","hc-key":"vn-ld"},"geometry":{"type":"Polygon","coordinates":[[[107.30785,11.56576],[107.28207,11.62732],[107.28506,11.65457],[107.3271,11.71833],[107.39103,11.75189],[107.44355,11.74462],[107.50192,11.77275],[107.56294,11.78721],[107.62142,11.82485],[107.7025,11.90724],[107.7357,11.90556],[107.74642,11.87001],[107.78634,11.84917],[107.87506,11.86328],[107.90253,11.84392],[107.91445,11.79336],[107.96014,11.79698],[107.99857,11.76932],[108.06002,11.82182],[108.08971,11.87873],[108.08764,11.94008],[108.02066,12.01577],[107.98524,12.06794],[107.99835,12.1264],[108.05398,12.14623],[108.11777,12.15234],[108.16231,12.17091],[108.23554,12.15643],[108.25394,12.18892],[108.33629,12.23971],[108.42639,12.24405],[108.48381,12.29237],[108.51578,12.30013],[108.60405,12.27174],[108.68205,12.30339],[108.70652,12.27037],[108.71912,12.18167],[108.68369,12.12222],[108.69258,12.06353],[108.68167,11.97379],[108.63699,11.83952],[108.6474,11.79035],[108.68409,11.74221],[108.67535,11.70827],[108.6095,11.63964],[108.61958,11.5646],[108.58015,11.50515],[108.51413,11.52775],[108.38699,11.52381],[108.3188,11.48236],[108.31545,11.43199],[108.33544,11.36908],[108.25049,11.30599],[108.15218,11.28116],[108.09215,11.2191],[108.05342,11.21132],[108.05267,11.2713],[108.01018,11.30172],[107.75619,11.3151],[107.69139,11.32796],[107.61019,11.36141],[107.52627,11.40305],[107.449,11.41734],[107.44826,11.49097],[107.39862,11.50639],[107.37419,11.56113],[107.30785,11.56576]]]}},{"type":"Feature","properties":{"name":"Bình Phước","name_local":"Bình Phước","iso_3166_2":"VN-58","hc-key":"vn-bp"},"geometry":{"type":"Polygon","coordinates":[[[107.39103,11.75189],[107.3271,11.71833],[107.28506,11.65457],[107.28207,11.62732],[107.30785,11.56576],[107.23425,11.52815],[107.14,11.49886],[107.10388,11.47593],[107.08403,11.40925],[107.04631,11.3536],[106.96428,11.28323],[106.93251,11.2848],[106.81256,11.32921],[106.77804,11.33488],[106.71843,11.30658],[106.72143,11.34612],[106.68832,11.35723],[106.648,11.31653],[106.6138,11.37947],[106.61962,11.43128],[106.60174,11.44911],[106.52172,11.48501],[106.51493,11.50823],[106.46399,11.55352],[106.48893,11.56157],[106.47143,11.65307],[106.43418,11.67781],[106.39854,11.7462],[106.42116,11.83749],[106.4393,11.86332],[106.39414,11.96996],[106.44266,11.97517],[106.47441,11.95181],[106.50501,11.97348],[106.63794,11.96046],[106.6311,11.9755],[106.70173,11.97099],[106.74937,12.05254],[106.80352,12.06856],[106.91576,12.06645],[106.97834,12.09738],[107.15303,12.27745],[107.22819,12.31094],[107.24692,12.06534],[107.27266,11.99558],[107.32912,11.95694],[107.35925,11.91851],[107.37389,11.85021],[107.40102,11.78589],[107.39103,11.75189]]]}},{"type":"Feature","properties":{"name":"Phú Yên","name_local":"Phú Yên","iso_3166_2":"VN-32","hc-key":"vn-py"},"geometry":{"type":"Polygon","coordinates":[[[108.82578,13.55696],[108.91037,13.53795],[108.97724,13.54234],[109.08097,13.58695],[109.16319,13.6727],[109.23743,13.69867],[109.25664,13.60578],[109.2951,13.5779],[109.29424,13.53028],[109.2524,13.60177],[109.21146,13.64739],[109.24488,13.5706],[109.2869,13.50863],[109.31359,13.52314],[109.30307,13.47977],[109.34036,13.46552],[109.31858,13.41418],[109.27701,13.42169],[109.29995,13.46077],[109.26292,13.48998],[109.23183,13.46193],[109.232,13.39251],[109.27995,13.35223],[109.29427,13.29754],[109.25954,13.29813],[109.29456,13.23493],[109.31372,13.29721],[109.32138,13.25898],[109.30805,13.13263],[109.37015,13.03223],[109.46519,12.91358],[109.45856,12.85246],[109.41718,12.86541],[109.38472,12.83329],[109.32265,12.85338],[109.19631,12.84726],[109.15437,12.82751],[109.10353,12.7725],[109.03665,12.75311],[108.9691,12.78],[108.88615,12.79894],[108.81722,12.82855],[108.72522,12.89524],[108.66144,12.99557],[108.66486,13.0391],[108.72977,13.10627],[108.81243,13.15136],[108.87452,13.2117],[108.85337,13.28011],[108.85425,13.33593],[108.82237,13.43037],[108.82578,13.55696]]]}},{"type":"Feature","properties":{"name":"Bình Định","name_local":"Bình Định","iso_3166_2":"VN-31","hc-key":"vn-bd"},"geometry":{"type":"Polygon","coordinates":[[[109.16319,13.6727],[109.08097,13.58695],[108.97724,13.54234],[108.91037,13.53795],[108.82578,13.55696],[108.82194,13.66459],[108.80794,13.74651],[108.7743,13.82057],[108.72789,13.8812],[108.71195,13.93047],[108.71858,13.99574],[108.6585,14.07701],[108.63597,14.15225],[108.63423,14.21765],[108.67585,14.37363],[108.687,14.45653],[108.68258,14.52742],[108.66693,14.59576],[108.7926,14.66592],[108.86277,14.67974],[108.97873,14.67233],[109.05025,14.68335],[109.07801,14.67197],[109.08618,14.58471],[109.07488,14.5781],[109.12984,14.4519],[109.12883,14.39747],[109.15009,14.33856],[109.18158,14.30534],[109.20123,14.23558],[109.19118,14.22078],[109.23838,14.13284],[109.17494,14.17206],[109.18405,14.13651],[109.22531,14.10449],[109.25327,14.03322],[109.26654,13.92138],[109.3075,13.87574],[109.30395,13.75876],[109.27047,13.75526],[109.27313,13.82463],[109.25204,13.89033],[109.23248,13.81036],[109.25834,13.77725],[109.22571,13.74378],[109.23743,13.69867],[109.16319,13.6727]]]}},{"type":"Feature","properties":{"name":"Gia Lai","name_local":"Gia Lai","iso_3166_2":"VN-30","hc-key":"vn-724"},"geometry":{"type":"Polygon","coordinates":[[[108.61871,14.6401],[108.66693,14.59576],[108.68258,14.52742],[108.687,14.45653],[108.67585,14.37363],[108.63423,14.21765],[108.63597,14.15225],[108.6585,14.07701],[108.71858,13.99574],[108.71195,13.93047],[108.72789,13.8812],[108.7743,13.82057],[108.80794,13.74651],[108.82194,13.66459],[108.82578,13.55696],[108.82237,13.43037],[108.85425,13.33593],[108.85337,13.28011],[108.87452,13.2117],[108.81243,13.15136],[108.72977,13.10627],[108.66486,13.0391],[108.66144,12.99557],[108.51473,13.03301],[108.47224,13.07445],[108.43371,13.20166],[108.40937,13.25103],[108.36409,13.29523],[108.10786,13.38434],[108.0313,13.38391],[107.92783,13.3456],[107.80261,13.34975],[107.68132,13.33334],[107.56225,13.26232],[107.60654,13.36956],[107.61106,13.40087],[107.59718,13.53461],[107.51385,13.69224],[107.44369,13.78292],[107.43483,13.87026],[107.44654,13.92195],[107.53227,13.97696],[107.60847,14.04977],[107.65836,14.13782],[107.7204,14.1862],[107.78781,14.21541],[108.15261,14.32941],[108.26091,14.37836],[108.33576,14.43045],[108.41116,14.51655],[108.4259,14.56537],[108.40996,14.62009],[108.49372,14.60932],[108.61871,14.6401]]]}},{"type":"Feature","properties":{"name":"Quảng Ngãi","name_local":"Quảng Ngãi","iso_3166_2":"VN-29","hc-key":"vn-qg"},"geometry":{"type":"Polygon","coordinates":[[[108.66693,14.59576],[108.61871,14.6401],[108.57209,14.78383],[108.54897,14.82504],[108.46548,14.85765],[108.42963,14.8936],[108.39291,14.96362],[108.29612,15.04814],[108.32615,15.08585],[108.27568,15.17786],[108.28743,15.21175],[108.33628,15.28459],[108.38591,15.31654],[108.48569,15.32453],[108.66634,15.38292],[108.76203,15.3963],[108.78039,15.32518],[108.7957,15.39573],[108.82719,15.42923],[108.83882,15.37456],[108.88301,15.33567],[108.88631,15.2866],[108.95155,15.25006],[108.91014,15.20994],[108.91854,15.05731],[108.94233,14.97929],[109.01223,14.82151],[109.08047,14.7291],[109.09471,14.66759],[109.07801,14.67197],[109.05025,14.68335],[108.97873,14.67233],[108.86277,14.67974],[108.7926,14.66592],[108.66693,14.59576]]]}},{"type":"Feature","properties":{"name":"Đồng Nai","name_local":"Đồng Nai","iso_3166_2":"VN-39","hc-key":"vn-331"},"geometry":{"type":"Polygon","coordinates":[[[107.02481,10.63496],[107.01265,10.67323],[107.00269,10.62556],[106.99717,10.62423],[106.99165,10.62426],[106.98439,10.56702],[106.96395,10.60534],[106.89266,10.66989],[106.83606,10.66068],[106.75771,10.70478],[106.75396,10.77301],[106.78972,10.75371],[106.82845,10.77121],[106.88082,10.76272],[106.88113,10.81318],[106.83605,10.88711],[106.8321,10.91715],[106.78693,10.98016],[106.78444,11.02656],[106.82742,11.05495],[106.87834,11.02735],[106.91287,11.02987],[106.95452,11.0637],[106.97424,11.12222],[106.93343,11.21523],[106.96428,11.28323],[107.04631,11.3536],[107.08403,11.40925],[107.10388,11.47593],[107.14,11.49886],[107.23425,11.52815],[107.30785,11.56576],[107.37419,11.56113],[107.39862,11.50639],[107.44826,11.49097],[107.449,11.41734],[107.52627,11.40305],[107.61019,11.36141],[107.56982,11.32768],[107.51086,11.22048],[107.43063,11.03843],[107.47724,11.00123],[107.53106,11.00079],[107.55711,10.98012],[107.58825,10.91169],[107.59048,10.85031],[107.56248,10.80146],[107.51658,10.75548],[107.48246,10.79803],[107.45766,10.80095],[107.35888,10.69127],[107.31335,10.68752],[107.29145,10.70813],[107.28087,10.76821],[107.24088,10.76987],[107.15093,10.72823],[107.14374,10.686],[107.11602,10.66573],[107.02481,10.63496]]]}},{"type":"Feature","properties":{"name":"Đồng Tháp","name_local":"Đồng Tháp","iso_3166_2":"VN-45","hc-key":"vn-dt"},"geometry":{"type":"Polygon","coordinates":[[[105.20982,10.89117],[105.25262,10.88295],[105.30366,10.84469],[105.32714,10.84876],[105.35758,10.90741],[105.41013,10.9633],[105.47362,10.94137],[105.52335,10.95084],[105.53711,10.91943],[105.59088,10.87976],[105.65285,10.80594],[105.86623,10.60755],[105.92266,10.56645],[105.96261,10.55405],[105.9486,10.48041],[105.83931,10.34426],[105.84885,10.30193],[105.79928,10.31979],[105.70025,10.40736],[105.63135,10.41706],[105.58315,10.44717],[105.55011,10.47452],[105.50471,10.53738],[105.40272,10.58665],[105.37792,10.61261],[105.36976,10.70269],[105.30628,10.70276],[105.24701,10.77924],[105.21531,10.84477],[105.20982,10.89117]]]}},{"type":"Feature","properties":{"name":"Long An","name_local":"Long An","iso_3166_2":"VN-41","hc-key":"vn-la"},"geometry":{"type":"Polygon","coordinates":[[[106.74442,10.55207],[106.73323,10.52212],[106.63788,10.47897],[106.61561,10.4368],[106.58517,10.41376],[106.45288,10.41575],[106.44073,10.47174],[106.35541,10.50623],[106.3143,10.56507],[106.27165,10.58707],[106.16686,10.59294],[106.12681,10.57944],[106.09912,10.54815],[106.05084,10.54422],[105.96261,10.55405],[105.92266,10.56645],[105.86623,10.60755],[105.65285,10.80594],[105.59088,10.87976],[105.53711,10.91943],[105.52335,10.95084],[105.6325,10.97383],[105.6975,11.01054],[105.75276,11.01586],[105.82156,10.92016],[105.86137,10.83955],[105.89998,10.82852],[105.93194,10.89665],[106.01728,10.81997],[106.07241,10.79658],[106.15517,10.78537],[106.17718,10.76619],[106.15133,10.86316],[106.12666,10.90964],[106.13102,10.96966],[106.17108,10.97088],[106.2028,10.9612],[106.28437,10.98543],[106.30249,11.02492],[106.36306,10.98236],[106.47738,10.92452],[106.52532,10.85062],[106.52232,10.80288],[106.49439,10.73617],[106.52324,10.71011],[106.6113,10.66874],[106.64562,10.63855],[106.71051,10.65184],[106.74342,10.61756],[106.74442,10.55207]]]}},{"type":"Feature","properties":{"name":"Hải Phòng","name_local":"Hải Phòng","iso_3166_2":"VN-HP","hc-key":"vn-3623"},"geometry":{"type":"Polygon","coordinates":[[[106.60588,21.02602],[106.64353,21.01749],[106.65079,21.01741],[106.67626,20.95856],[106.75584,20.93867],[106.73779,20.88298],[106.71772,20.90362],[106.70008,20.88336],[106.75307,20.82557],[106.72513,20.79042],[106.7882,20.73117],[106.80641,20.67782],[106.76772,20.71366],[106.74146,20.69757],[106.66317,20.69153],[106.70337,20.65979],[106.65382,20.63028],[106.59318,20.64721],[106.5378,20.61227],[106.46964,20.60059],[106.44818,20.62804],[106.41718,20.71963],[106.46065,20.72063],[106.53517,20.78268],[106.54119,20.80444],[106.50658,20.82247],[106.49681,20.86072],[106.5348,20.88901],[106.53674,20.9367],[106.58635,20.96351],[106.60588,21.02602]]]}},{"type":"Feature","properties":{"name":"Hậu Giang","name_local":"Hậu Giang","iso_3166_2":"VN-73","hc-key":"vn-337"},"geometry":{"type":"Polygon","coordinates":[[[105.83842,10.00446],[105.83836,9.9799],[105.90151,9.91696],[105.81982,9.71929],[105.7923,9.71253],[105.67385,9.64046],[105.56928,9.61062],[105.46199,9.58758],[105.39186,9.5863],[105.39329,9.64226],[105.36171,9.68323],[105.38789,9.72688],[105.50361,9.83454],[105.5285,9.9082],[105.51893,9.95189],[105.42269,10.04346],[105.52464,10.0788],[105.63072,10.10182],[105.69274,10.12353],[105.77937,10.06465],[105.83842,10.00446]]]}},{"type":"Feature","properties":{"name":"Bạc Liêu","name_local":"Bạc Liêu","iso_3166_2":"VN-55","hc-key":"vn-bl"},"geometry":{"type":"Polygon","coordinates":[[[105.86817,9.25518],[105.75955,9.21039],[105.53829,9.1289],[105.44342,9.04168],[105.42553,9.00758],[105.39813,9.05811],[105.35146,9.07317],[105.33089,9.10322],[105.31038,9.19605],[105.28291,9.20562],[105.28156,9.23565],[105.31733,9.29704],[105.28713,9.33118],[105.30503,9.37211],[105.28032,9.40625],[105.29821,9.42535],[105.28175,9.47176],[105.31066,9.51541],[105.29285,9.58776],[105.30662,9.60549],[105.39186,9.5863],[105.46199,9.58758],[105.56928,9.61062],[105.57728,9.45912],[105.5992,9.41814],[105.69259,9.38385],[105.80117,9.39044],[105.83272,9.36444],[105.86817,9.25518]]]}},{"type":"Feature","properties":{"name":"Vĩnh Long","name_local":"Vĩnh Long","iso_3166_2":"VN-49","hc-key":"vn-vl"},"geometry":{"type":"Polygon","coordinates":[[[106.1187,10.23834],[106.16671,10.18086],[106.19403,10.12072],[106.24619,10.07687],[106.20618,10.05518],[106.18816,10.0225],[106.1316,9.98722],[106.13697,9.95036],[106.06257,9.92604],[105.99639,9.88804],[105.90443,9.977],[105.83842,10.00446],[105.77937,10.06465],[105.69274,10.12353],[105.70386,10.16717],[105.73833,10.18347],[105.76859,10.16293],[105.84979,10.13817],[105.90911,10.17213],[105.91062,10.22125],[105.88175,10.2418],[105.84885,10.30193],[105.89842,10.29088],[105.95491,10.28799],[106.07331,10.26032],[106.1187,10.23834]]]}},{"type":"Feature","properties":{"name":"Tây Ninh","name_local":"Tây Ninh","iso_3166_2":"VN-37","hc-key":"vn-tn"},"geometry":{"type":"Polygon","coordinates":[[[106.43418,11.67781],[106.47143,11.65307],[106.48893,11.56157],[106.46399,11.55352],[106.43048,11.49366],[106.37902,11.4366],[106.34263,11.344],[106.34645,11.27304],[106.38202,11.19647],[106.4219,11.15672],[106.43003,11.12394],[106.41869,11.06533],[106.36306,10.98236],[106.30249,11.02492],[106.28437,10.98543],[106.2028,10.9612],[106.17108,10.97088],[106.18767,10.97627],[106.16035,11.05415],[106.13146,11.08428],[106.08715,11.05578],[106.06242,11.09271],[105.97433,11.18989],[105.89979,11.21878],[105.88612,11.26794],[105.84471,11.2899],[105.87135,11.41263],[105.85377,11.5464],[105.80401,11.56565],[105.79024,11.58752],[105.80556,11.62432],[105.85827,11.66101],[105.93435,11.64303],[105.98302,11.707],[106.0151,11.77102],[106.11332,11.74745],[106.15486,11.74593],[106.24333,11.71417],[106.28745,11.67441],[106.35396,11.69048],[106.41334,11.66154],[106.43418,11.67781]]]}},{"type":"Feature","properties":{"name":"Thái Nguyên","name_local":"Thái Nguyên","iso_3166_2":"VN-69","hc-key":"vn-ty"},"geometry":{"type":"Polygon","coordinates":[[[105.921,21.32831],[105.84846,21.36414],[105.77278,21.36314],[105.73958,21.41782],[105.63651,21.48913],[105.57701,21.54388],[105.52186,21.60814],[105.51772,21.67223],[105.53448,21.86712],[105.55817,21.9502],[105.58451,21.95693],[105.62712,22.00994],[105.71786,22.03001],[105.77314,21.97796],[105.77846,21.88251],[105.80131,21.78834],[105.83941,21.81405],[105.89933,21.826],[106.00196,21.88812],[106.02558,21.92205],[106.11344,21.94874],[106.11743,21.89828],[106.14152,21.80542],[106.18077,21.78606],[106.25296,21.69557],[106.25572,21.67783],[106.20867,21.63183],[106.16736,21.57078],[106.14444,21.62138],[106.06726,21.6328],[106.03939,21.60844],[106.07214,21.50327],[106.05125,21.43387],[106.01907,21.41226],[105.971,21.40846],[105.921,21.32831]]]}},{"type":"Feature","properties":{"name":"Lai Châu","name_local":"Lai Châu","iso_3166_2":"VN-01","hc-key":"vn-li"},"geometry":{"type":"Polygon","coordinates":[[[103.56999,22.03352],[103.54111,21.99919],[103.53563,21.96371],[103.55101,21.88752],[103.4976,21.96745],[103.46228,21.99029],[103.45892,22.03115],[103.41597,22.08117],[103.40072,22.1369],[103.36097,22.15831],[103.3245,22.14976],[103.26682,22.08102],[103.2643,22.04828],[103.17753,22.08822],[103.13956,22.08507],[103.09519,22.12272],[103.04072,22.14796],[102.95167,22.13597],[102.92212,22.15603],[102.90825,22.20355],[102.8453,22.20545],[102.82587,22.23244],[102.81754,22.29773],[102.77702,22.35986],[102.70141,22.41466],[102.64538,22.43565],[102.56762,22.52441],[102.5082,22.56709],[102.45842,22.56223],[102.37896,22.57593],[102.32489,22.56551],[102.38382,22.62914],[102.35684,22.65866],[102.39458,22.68108],[102.44293,22.76495],[102.51525,22.74566],[102.53524,22.69557],[102.58628,22.71542],[102.61313,22.6913],[102.69276,22.67067],[102.75223,22.62519],[102.81267,22.60831],[102.8453,22.58559],[102.89376,22.48677],[102.98977,22.43758],[103.04543,22.44099],[103.0448,22.48595],[103.14235,22.53752],[103.13007,22.57826],[103.14142,22.60701],[103.22886,22.65569],[103.25205,22.67911],[103.30946,22.78739],[103.3448,22.78231],[103.40116,22.73791],[103.40467,22.68888],[103.44805,22.61844],[103.50424,22.58082],[103.5505,22.64802],[103.60259,22.57898],[103.61054,22.51772],[103.57863,22.482],[103.58773,22.4521],[103.65259,22.41722],[103.74785,22.41935],[103.80112,22.3625],[103.771,22.28731],[103.6999,22.21588],[103.62267,22.17981],[103.58523,22.11816],[103.56999,22.03352]]]}},{"type":"Feature","properties":{"name":"Sơn La","name_local":"Sơn La","iso_3166_2":"VN-05","hc-key":"vn-311"},"geometry":{"type":"Polygon","coordinates":[[[103.55101,21.88752],[103.53563,21.96371],[103.54111,21.99919],[103.56999,22.03352],[103.605,22.042],[103.64775,22.0042],[103.71043,21.86158],[103.83413,21.73301],[103.87808,21.70877],[103.92468,21.71999],[104.01683,21.68512],[104.17012,21.65869],[104.23277,21.6699],[104.30696,21.70976],[104.34944,21.6704],[104.31786,21.56393],[104.31089,21.49574],[104.32861,21.44401],[104.3564,21.41685],[104.44539,21.36809],[104.49052,21.36551],[104.55881,21.40387],[104.60392,21.41353],[104.68989,21.38099],[104.74811,21.38381],[104.77875,21.33478],[104.82823,21.32938],[104.86614,21.25034],[104.87204,21.14945],[104.90841,21.10175],[104.88229,21.06083],[104.88086,21.02266],[104.91285,20.96405],[105.01299,20.86045],[105.08695,20.8127],[105.07677,20.7718],[104.97385,20.72955],[104.85791,20.72813],[104.8391,20.69676],[104.84352,20.62586],[104.77697,20.57534],[104.72773,20.58481],[104.64361,20.64192],[104.61464,20.64322],[104.60011,20.66092],[104.49277,20.70154],[104.45198,20.76413],[104.38962,20.77074],[104.33577,20.81962],[104.29489,20.87945],[104.25998,20.89839],[104.22084,20.8914],[104.19452,20.92945],[104.09275,20.96166],[104.05648,20.95873],[104.01037,20.90803],[103.95239,20.90087],[103.77594,20.83426],[103.75319,20.77957],[103.75923,20.74962],[103.70729,20.72197],[103.71496,20.67159],[103.66582,20.65895],[103.57823,20.73322],[103.49693,20.74889],[103.42663,20.8205],[103.3632,20.7872],[103.26275,20.82574],[103.2265,20.82673],[103.22864,20.89081],[103.24375,20.9632],[103.29094,21.02502],[103.28607,21.06995],[103.31789,21.08117],[103.37919,21.05314],[103.43706,21.07277],[103.42162,21.15986],[103.44009,21.19956],[103.44957,21.26643],[103.43899,21.3045],[103.40232,21.33278],[103.37823,21.40615],[103.43606,21.4435],[103.46598,21.50511],[103.52659,21.56154],[103.56107,21.61091],[103.5692,21.67368],[103.55673,21.75399],[103.55101,21.88752]]]}},{"type":"Feature","properties":{"name":"Hà Giang","name_local":"Hà Giang","iso_3166_2":"VN-03","hc-key":"vn-hg"},"geometry":{"type":"Polygon","coordinates":[[[104.84772,22.17057],[104.77013,22.18138],[104.68944,22.2644],[104.62795,22.25746],[104.59432,22.23966],[104.59405,22.33099],[104.54997,22.37041],[104.48242,22.40565],[104.44077,22.55409],[104.47291,22.59373],[104.42276,22.65081],[104.38159,22.66156],[104.36235,22.69284],[104.44882,22.74496],[104.55286,22.83661],[104.57942,22.80942],[104.61025,22.82313],[104.66322,22.81099],[104.72786,22.83973],[104.77483,22.8957],[104.82335,22.92438],[104.82772,22.95438],[104.79809,23.0852],[104.86141,23.11934],[104.87021,23.16297],[104.94539,23.16029],[104.98077,23.19028],[105.06041,23.23253],[105.21681,23.26511],[105.23609,23.3196],[105.28045,23.35905],[105.31146,23.36581],[105.33202,23.31806],[105.38945,23.27568],[105.43074,23.26739],[105.47326,23.19503],[105.51739,23.16763],[105.53481,23.09942],[105.50972,23.08723],[105.4977,23.02457],[105.47848,23.00146],[105.43283,23.00022],[105.35898,22.91453],[105.30151,22.87649],[105.30293,22.85467],[105.45123,22.77526],[105.48928,22.73017],[105.51989,22.66328],[105.56807,22.59223],[105.5005,22.58155],[105.34348,22.60105],[105.19674,22.64764],[105.17029,22.63677],[105.13493,22.52502],[105.08207,22.45962],[105.0483,22.35739],[105.02045,22.3424],[104.95744,22.35331],[104.93986,22.33285],[104.92964,22.26741],[104.84772,22.17057]]]}},{"type":"Feature","properties":{"name":"Nam Định","name_local":"Nam Định","iso_3166_2":"VN-67","hc-key":"vn-nd"},"geometry":{"type":"Polygon","coordinates":[[[106.50291,20.30041],[106.54906,20.29183],[106.54906,20.29183],[106.54906,20.29183],[106.57013,20.23166],[106.505,20.21724],[106.39513,20.20451],[106.36029,20.18433],[106.3048,20.10841],[106.25968,20.06102],[106.161,19.98398],[106.10751,19.96524],[106.11375,20.03337],[106.15195,20.1272],[106.1555,20.21716],[106.09364,20.253],[106.05743,20.23959],[105.9638,20.28239],[105.95113,20.337],[105.95291,20.39153],[105.96899,20.41871],[106.0268,20.41292],[106.07067,20.48355],[106.18502,20.49099],[106.21528,20.47442],[106.21913,20.41304],[106.27258,20.40585],[106.26485,20.34455],[106.27773,20.32946],[106.34886,20.36437],[106.45077,20.28722],[106.50291,20.30041]]]}},{"type":"Feature","properties":{"name":"Hà Tĩnh","name_local":"Hà Tĩnh","iso_3166_2":"VN-23","hc-key":"vn-328"},"geometry":{"type":"Polygon","coordinates":[[[105.75111,18.66213],[105.76975,18.6716],[105.76727,18.75616],[105.78298,18.74791],[105.7913,18.68924],[105.82661,18.59363],[105.8791,18.51157],[105.91463,18.47322],[105.94892,18.47168],[105.97711,18.40199],[106.09782,18.28952],[106.10329,18.2513],[106.16618,18.26593],[106.27135,18.2039],[106.34642,18.13248],[106.30625,18.10003],[106.35032,18.08336],[106.37045,18.10504],[106.43477,18.12366],[106.42169,18.09376],[106.43846,18.05137],[106.5189,17.95667],[106.38653,17.97266],[106.34944,17.96747],[106.3006,17.91325],[106.24645,17.90952],[106.13832,17.92927],[106.05874,17.96381],[106.04342,18.0239],[105.98661,18.06102],[105.92679,18.07086],[105.85974,18.06435],[105.73695,18.02258],[105.68262,17.98187],[105.60277,17.96986],[105.56584,18.00816],[105.55171,18.04775],[105.47636,18.12705],[105.4722,18.17207],[105.45085,18.19258],[105.39235,18.19407],[105.368,18.15047],[105.29532,18.19561],[105.29257,18.25289],[105.24688,18.24614],[105.15702,18.31988],[105.16277,18.36625],[105.09139,18.4263],[105.07997,18.45495],[105.10003,18.55177],[105.12867,18.59949],[105.17017,18.61855],[105.2746,18.62524],[105.41184,18.58817],[105.5034,18.59749],[105.63206,18.58211],[105.66205,18.56973],[105.69363,18.60098],[105.68942,18.62145],[105.75111,18.66213]]]}},{"type":"Feature","properties":{"name":"Nghệ An","name_local":"Nghệ An","iso_3166_2":"VN-22","hc-key":"vn-na"},"geometry":{"type":"Polygon","coordinates":[[[105.80555,19.27418],[105.77234,19.23614],[105.74507,19.23762],[105.73186,19.17086],[105.73732,19.10811],[105.69561,19.08099],[105.66839,19.08928],[105.64391,19.06482],[105.61498,18.9981],[105.62903,18.92168],[105.64898,18.89298],[105.71615,18.85455],[105.68882,18.82601],[105.72032,18.82317],[105.75732,18.77256],[105.75111,18.66213],[105.68942,18.62145],[105.69363,18.60098],[105.66205,18.56973],[105.63206,18.58211],[105.5034,18.59749],[105.41184,18.58817],[105.2746,18.62524],[105.17017,18.61855],[105.113,18.69769],[105.06434,18.69635],[104.98992,18.73318],[104.93696,18.73181],[104.89972,18.76998],[104.81524,18.77401],[104.72215,18.79162],[104.68629,18.82429],[104.64617,18.8324],[104.54428,18.90719],[104.48102,18.97794],[104.40069,18.99269],[104.3546,19.04845],[104.30289,19.06872],[104.25971,19.104],[104.21095,19.10107],[104.19782,19.14738],[104.14742,19.18261],[104.03664,19.22978],[103.97207,19.22534],[103.91731,19.25775],[103.89265,19.29442],[103.8481,19.2996],[103.86945,19.327],[103.92099,19.35322],[103.95235,19.39158],[104.03843,19.41387],[104.0611,19.47126],[104.08978,19.48368],[104.0721,19.55858],[104.01718,19.60056],[103.99816,19.65227],[104.02245,19.68104],[104.08884,19.65139],[104.13614,19.68707],[104.22962,19.70659],[104.27724,19.68361],[104.29464,19.65504],[104.34202,19.68249],[104.37944,19.68535],[104.41556,19.65138],[104.50638,19.60256],[104.6229,19.61785],[104.65439,19.69836],[104.69175,19.73525],[104.73638,19.74623],[104.80545,19.79132],[104.81691,19.8486],[104.76069,19.86081],[104.7808,19.90856],[104.85861,19.955],[104.87445,19.98229],[104.94513,19.99187],[105.01436,19.97006],[105.06339,19.94141],[105.15132,19.91545],[105.18013,19.89088],[105.13538,19.81046],[105.14685,19.75727],[105.18998,19.68769],[105.26186,19.61941],[105.27176,19.51985],[105.31784,19.54569],[105.35666,19.54016],[105.40111,19.48416],[105.43702,19.46907],[105.50747,19.47025],[105.53473,19.45381],[105.58625,19.3882],[105.63214,19.36214],[105.69941,19.30189],[105.764,19.29345],[105.80555,19.27418]]]}},{"type":"Feature","properties":{"name":"Quảng Bình","name_local":"Quảng Bình","iso_3166_2":"VN-24","hc-key":"vn-qb"},"geometry":{"type":"Polygon","coordinates":[[[106.5189,17.95667],[106.52448,17.94299],[106.4556,17.88216],[106.4425,17.8468],[106.48971,17.70191],[106.43594,17.73913],[106.37496,17.76547],[106.28534,17.77154],[106.34635,17.74658],[106.42877,17.731],[106.38314,17.71905],[106.50378,17.68271],[106.61469,17.51822],[106.63415,17.47033],[106.76356,17.33561],[107.00726,17.16154],[106.90311,17.09983],[106.8572,17.04572],[106.81688,16.97927],[106.74869,16.96078],[106.58868,16.97164],[106.53325,16.95024],[106.52507,16.98985],[106.49652,16.96415],[106.42019,16.98924],[106.38661,17.04675],[106.38405,17.08495],[106.33616,17.12891],[106.30671,17.17683],[106.3099,17.22727],[106.28475,17.28471],[106.26065,17.28895],[106.22204,17.24555],[106.18522,17.25805],[106.0199,17.39397],[105.91114,17.51724],[105.84613,17.59799],[105.78801,17.64188],[105.73547,17.6639],[105.64356,17.8197],[105.60523,17.85392],[105.59395,17.88805],[105.60277,17.96986],[105.68262,17.98187],[105.73695,18.02258],[105.85974,18.06435],[105.92679,18.07086],[105.98661,18.06102],[106.04342,18.0239],[106.05874,17.96381],[106.13832,17.92927],[106.24645,17.90952],[106.3006,17.91325],[106.34944,17.96747],[106.38653,17.97266],[106.5189,17.95667]]]}},{"type":"Feature","properties":{"name":"Đắk Lắk","name_local":"Đắk Lắk","iso_3166_2":"VN-33","hc-key":"vn-723"},"geometry":{"type":"Polygon","coordinates":[[[107.54,12.71722],[107.53526,12.79907],[107.49417,12.85808],[107.46741,12.96332],[107.4815,12.98227],[107.46104,13.022],[107.56225,13.26232],[107.68132,13.33334],[107.80261,13.34975],[107.92783,13.3456],[108.0313,13.38391],[108.10786,13.38434],[108.36409,13.29523],[108.40937,13.25103],[108.43371,13.20166],[108.47224,13.07445],[108.51473,13.03301],[108.66144,12.99557],[108.72522,12.89524],[108.81722,12.82855],[108.88615,12.79894],[108.9691,12.78],[109.03665,12.75311],[108.97056,12.69556],[108.90655,12.68154],[108.87496,12.60983],[108.87985,12.56618],[108.85507,12.48484],[108.83545,12.47014],[108.77625,12.49685],[108.6762,12.47917],[108.66606,12.44798],[108.66772,12.36896],[108.68205,12.30339],[108.60405,12.27174],[108.51578,12.30013],[108.48381,12.29237],[108.42639,12.24405],[108.33629,12.23971],[108.25394,12.18892],[108.23554,12.15643],[108.16231,12.17091],[108.11777,12.15234],[108.12803,12.20128],[108.07612,12.26455],[108.02939,12.29778],[107.97821,12.30652],[107.94131,12.35326],[107.92947,12.41063],[107.97826,12.43327],[108.00523,12.48748],[107.97639,12.51234],[107.92248,12.52928],[107.9118,12.5662],[107.87463,12.5925],[107.86316,12.68394],[107.84275,12.72096],[107.54,12.71722]]]}},{"type":"Feature","properties":{"name":"Ninh Thuận","name_local":"Ninh Thuận","iso_3166_2":"VN-36","hc-key":"vn-nt"},"geometry":{"type":"Polygon","coordinates":[[[109.20435,11.78811],[109.24362,11.7358],[109.19155,11.67259],[109.18414,11.63866],[109.13617,11.56993],[109.06733,11.58316],[109.04326,11.63796],[109.01971,11.63284],[109.03997,11.60124],[109.02772,11.517],[109.01855,11.35646],[108.95167,11.30971],[108.90633,11.32393],[108.86857,11.38843],[108.7722,11.40739],[108.76322,11.45926],[108.71524,11.48575],[108.69671,11.54728],[108.61958,11.5646],[108.6095,11.63964],[108.67535,11.70827],[108.68409,11.74221],[108.6474,11.79035],[108.63699,11.83952],[108.68167,11.97379],[108.69258,12.06353],[108.68369,12.12222],[108.71912,12.18167],[108.77831,12.15771],[108.80968,12.1246],[108.87782,11.9548],[108.90522,11.93672],[109.03339,11.90767],[109.06605,11.87317],[109.08599,11.81978],[109.11468,11.79759],[109.20435,11.78811]]]}},{"type":"Feature","properties":{"name":"Đắk Nông","name_local":"Đắk Nông","iso_3166_2":"VN-72","hc-key":"vn-6365"},"geometry":{"type":"Polygon","coordinates":[[[108.11777,12.15234],[108.05398,12.14623],[107.99835,12.1264],[107.98524,12.06794],[108.02066,12.01577],[108.08764,11.94008],[108.08971,11.87873],[108.06002,11.82182],[107.99857,11.76932],[107.96014,11.79698],[107.91445,11.79336],[107.90253,11.84392],[107.87506,11.86328],[107.78634,11.84917],[107.74642,11.87001],[107.7357,11.90556],[107.7025,11.90724],[107.62142,11.82485],[107.56294,11.78721],[107.50192,11.77275],[107.44355,11.74462],[107.39103,11.75189],[107.40102,11.78589],[107.37389,11.85021],[107.35925,11.91851],[107.32912,11.95694],[107.27266,11.99558],[107.24692,12.06534],[107.22819,12.31094],[107.31988,12.32927],[107.39268,12.25228],[107.41626,12.25344],[107.44996,12.2995],[107.51416,12.34391],[107.55702,12.47303],[107.56528,12.60655],[107.54,12.71722],[107.84275,12.72096],[107.86316,12.68394],[107.87463,12.5925],[107.9118,12.5662],[107.92248,12.52928],[107.97639,12.51234],[108.00523,12.48748],[107.97826,12.43327],[107.92947,12.41063],[107.94131,12.35326],[107.97821,12.30652],[108.02939,12.29778],[108.07612,12.26455],[108.12803,12.20128],[108.11777,12.15234]]]}},{"type":"Feature","properties":{"name":"Kon Tum","name_local":"Kon Tum","iso_3166_2":"VN-28","hc-key":"vn-299"},"geometry":{"type":"Polygon","coordinates":[[[108.61871,14.6401],[108.49372,14.60932],[108.40996,14.62009],[108.4259,14.56537],[108.41116,14.51655],[108.33576,14.43045],[108.26091,14.37836],[108.15261,14.32941],[107.78781,14.21541],[107.7204,14.1862],[107.65836,14.13782],[107.60847,14.04977],[107.53227,13.97696],[107.44654,13.92195],[107.43045,13.98482],[107.37193,13.99631],[107.34286,14.02113],[107.34486,14.0811],[107.32011,14.11951],[107.35907,14.23911],[107.35013,14.321],[107.38755,14.42151],[107.45624,14.43444],[107.505,14.54162],[107.50428,14.60161],[107.53175,14.67765],[107.49118,14.80486],[107.55801,14.88728],[107.46208,14.95649],[107.44603,15.02482],[107.51924,15.04856],[107.57815,15.0479],[107.58443,15.10371],[107.62154,15.15508],[107.62335,15.18777],[107.65725,15.20509],[107.65823,15.28277],[107.59845,15.33118],[107.57686,15.40367],[107.64986,15.39872],[107.68884,15.371],[107.73006,15.29963],[107.77635,15.29633],[107.86239,15.22165],[107.92847,15.23034],[107.97178,15.21615],[108.062,15.1468],[108.07425,15.12075],[108.07447,15.03899],[108.13916,14.95636],[108.19007,14.98699],[108.19531,15.0564],[108.21648,15.06564],[108.29612,15.04814],[108.39291,14.96362],[108.42963,14.8936],[108.46548,14.85765],[108.54897,14.82504],[108.57209,14.78383],[108.61871,14.6401]]]}},{"type":"Feature","properties":{"name":"Quảng Nam","name_local":"Quảng Nam","iso_3166_2":"VN-27","hc-key":"vn-300"},"geometry":{"type":"Polygon","coordinates":[[[108.28295,15.98968],[108.30633,15.95526],[108.38844,15.89814],[108.41467,15.86776],[108.42349,15.80633],[108.45484,15.74726],[108.61836,15.52943],[108.68276,15.51747],[108.62162,15.4749],[108.65188,15.43899],[108.69772,15.48998],[108.70394,15.44494],[108.76203,15.3963],[108.66634,15.38292],[108.48569,15.32453],[108.38591,15.31654],[108.33628,15.28459],[108.28743,15.21175],[108.27568,15.17786],[108.32615,15.08585],[108.29612,15.04814],[108.21648,15.06564],[108.19531,15.0564],[108.19007,14.98699],[108.13916,14.95636],[108.07447,15.03899],[108.07425,15.12075],[108.062,15.1468],[107.97178,15.21615],[107.92847,15.23034],[107.86239,15.22165],[107.77635,15.29633],[107.73006,15.29963],[107.68884,15.371],[107.64986,15.39872],[107.57686,15.40367],[107.49416,15.41961],[107.48786,15.48102],[107.44742,15.50874],[107.36995,15.49595],[107.31617,15.58922],[107.24911,15.63082],[107.21498,15.72796],[107.16041,15.7585],[107.14952,15.79406],[107.17545,15.84833],[107.23609,15.85589],[107.30559,15.89879],[107.36068,15.91183],[107.39055,15.93603],[107.44499,16.01039],[107.43285,16.05551],[107.59779,16.0563],[107.66167,16.09095],[107.68827,16.07699],[107.72128,16.01661],[107.7382,16.01776],[107.78404,16.07168],[107.85614,16.08708],[107.93355,16.07922],[108.00694,16.08637],[108.01555,16.00314],[108.05602,15.97804],[108.10108,15.97739],[108.18307,15.99663],[108.28295,15.98968]]]}},{"type":"Feature","properties":{"name":"Quảng Trị","name_local":"Quảng Trị","iso_3166_2":"VN-25","hc-key":"vn-qt"},"geometry":{"type":"Polygon","coordinates":[[[107.06734,16.29113],[106.9672,16.30027],[106.95061,16.33587],[106.85955,16.41169],[106.86467,16.50436],[106.82252,16.53064],[106.79801,16.47904],[106.75234,16.42897],[106.69299,16.42809],[106.6552,16.47067],[106.64008,16.52124],[106.64064,16.58669],[106.57298,16.61312],[106.53535,16.68295],[106.53325,16.95024],[106.58868,16.97164],[106.74869,16.96078],[106.81688,16.97927],[106.8572,17.04572],[106.90311,17.09983],[107.00726,17.16154],[107.11137,17.08822],[107.12664,17.05944],[107.12192,17.01859],[107.20005,16.91415],[107.14155,16.87524],[107.18969,16.87473],[107.21698,16.90852],[107.41179,16.74956],[107.33838,16.64681],[107.26854,16.59988],[107.17368,16.58726],[107.10829,16.55385],[107.11918,16.51557],[107.16673,16.47145],[107.12511,16.41189],[107.06225,16.34435],[107.06734,16.29113]]]}},{"type":"Feature","properties":{"name":"Thừa Thiên Huế","name_local":"Thừa Thiên Huế","iso_3166_2":"VN-26","hc-key":"vn-tt"},"geometry":{"type":"Polygon","coordinates":[[[107.41179,16.74956],[107.49729,16.68858],[107.60492,16.59593],[107.59637,16.59059],[107.47421,16.65341],[107.44304,16.64833],[107.56376,16.58282],[107.59492,16.58788],[107.60848,16.54546],[107.66367,16.55158],[107.65198,16.52311],[107.67281,16.49695],[107.69714,16.5198],[107.7585,16.46313],[107.8264,16.37365],[107.79402,16.37953],[107.81283,16.31251],[107.89699,16.27866],[107.93699,16.31218],[107.94472,16.35704],[108.01188,16.3193],[108.04334,16.3461],[108.05399,16.30507],[108.09383,16.23636],[108.05191,16.2615],[108.05433,16.23558],[108.2006,16.21162],[108.13277,16.20173],[108.04141,16.22077],[107.9525,16.21658],[107.92093,16.18023],[107.88611,16.11257],[107.85614,16.08708],[107.78404,16.07168],[107.7382,16.01776],[107.72128,16.01661],[107.68827,16.07699],[107.66167,16.09095],[107.59779,16.0563],[107.43285,16.05551],[107.43166,16.07325],[107.32714,16.05669],[107.29903,16.06381],[107.23914,16.12988],[107.15491,16.16619],[107.12707,16.20056],[107.11636,16.2552],[107.06734,16.29113],[107.06225,16.34435],[107.12511,16.41189],[107.16673,16.47145],[107.11918,16.51557],[107.10829,16.55385],[107.17368,16.58726],[107.26854,16.59988],[107.33838,16.64681],[107.41179,16.74956]]]}},{"type":"Feature","properties":{"name":"Đà Nẵng","name_local":"Đà Nẵng","iso_3166_2":"VN-DN","hc-key":"vn-da"},"geometry":{"type":"MultiPolygon","coordinates":[[[[108.2006,16.21162],[108.15484,16.17143],[108.14275,16.11984],[108.19694,16.07135],[108.22824,16.08996],[108.23889,16.05165],[108.19726,16.00323],[108.24969,16.02288],[108.2471,16.12373],[108.22461,16.12679],[108.24491,16.1619],[108.31775,16.1349],[108.31737,16.11175],[108.26515,16.1071],[108.25892,16.07042],[108.28295,15.98968],[108.18307,15.99663],[108.10108,15.97739],[108.05602,15.97804],[108.01555,16.00314],[108.00694,16.08637],[107.93355,16.07922],[107.85614,16.08708],[107.88611,16.11257],[107.92093,16.18023],[107.9525,16.21658],[108.04141,16.22077],[108.13277,16.20173],[108.2006,16.21162]]],[[[108.54233,15.92563],[108.48809,15.96329],[108.50801,15.97522],[108.53859,15.95293],[108.54233,15.92563]]]]}},{"type":"Feature","properties":{"name":"An Giang","name_local":"An Giang","iso_3166_2":"VN-44","hc-key":"vn-ag"},"geometry":{"type":"Polygon","coordinates":[[[104.72412,10.52128],[104.81928,10.51726],[104.85375,10.53092],[104.94476,10.64149],[105.04272,10.69063],[105.06618,10.71382],[105.06619,10.74658],[105.01513,10.84894],[105.02894,10.91444],[105.07728,10.94719],[105.09798,10.91443],[105.20982,10.89117],[105.21531,10.84477],[105.24701,10.77924],[105.30628,10.70276],[105.36976,10.70269],[105.37792,10.61261],[105.40272,10.58665],[105.50471,10.53738],[105.55011,10.47452],[105.58315,10.44717],[105.53344,10.40222],[105.49474,10.33405],[105.47398,10.2754],[105.42988,10.2741],[105.36782,10.23459],[105.33342,10.27284],[105.26587,10.23469],[105.24104,10.19923],[104.88828,10.38218],[104.72412,10.52128]]]}},{"type":"Feature","properties":{"name":"Cà Mau","name_local":"Cà Mau","iso_3166_2":"VN-59","hc-key":"vn-cm"},"geometry":{"type":"Polygon","coordinates":[[[105.42553,9.00758],[105.3334,8.8398],[105.25924,8.7607],[105.18378,8.74027],[105.10143,8.63384],[104.85596,8.56558],[104.75173,8.59009],[104.72017,8.61327],[104.75994,8.61603],[104.83535,8.66111],[104.81888,8.69113],[104.84494,8.69797],[104.91215,8.68571],[104.9629,8.71984],[104.87649,8.69935],[104.85315,8.72936],[104.9286,8.74713],[104.92173,8.80991],[104.81609,8.77166],[104.77491,8.81804],[104.81189,8.93681],[104.80772,9.04599],[104.81863,9.1934],[104.83358,9.53462],[104.87346,9.50734],[104.96969,9.53056],[105.02332,9.52783],[105.24047,9.4172],[105.28032,9.40625],[105.30503,9.37211],[105.28713,9.33118],[105.31733,9.29704],[105.28156,9.23565],[105.28291,9.20562],[105.31038,9.19605],[105.33089,9.10322],[105.35146,9.07317],[105.39813,9.05811],[105.42553,9.00758]]]}},{"type":"Feature","properties":{"name":"Trà Vinh","name_local":"Trà Vinh","iso_3166_2":"VN-51","hc-key":"vn-tv"},"geometry":{"type":"Polygon","coordinates":[[[106.24619,10.07687],[106.28326,10.0508],[106.312,10.00839],[106.38877,9.93304],[106.47515,9.86172],[106.5189,9.80149],[106.52697,9.76189],[106.575,9.73848],[106.57595,9.64843],[106.54404,9.58445],[106.48477,9.5465],[106.39815,9.54141],[106.33784,9.58531],[106.25002,9.63066],[106.06493,9.80459],[105.99639,9.88804],[106.06257,9.92604],[106.13697,9.95036],[106.1316,9.98722],[106.18816,10.0225],[106.20618,10.05518],[106.24619,10.07687]]]}},{"type":"Feature","properties":{"name":"Cao Bằng","name_local":"Cao Bằng","iso_3166_2":"VN-04","hc-key":"vn-cb"},"geometry":{"type":"Polygon","coordinates":[[[105.53481,23.09942],[105.56557,23.05433],[105.69072,23.04429],[105.75531,23.00583],[105.85332,22.90447],[105.88733,22.93018],[105.9447,22.92712],[105.9995,22.97585],[106.07755,22.9808],[106.17017,22.96651],[106.20238,22.94719],[106.234,22.86381],[106.31626,22.85361],[106.45781,22.88917],[106.48763,22.92569],[106.58143,22.8948],[106.61034,22.85227],[106.66788,22.86803],[106.73173,22.80057],[106.79048,22.7972],[106.79163,22.77266],[106.74719,22.74453],[106.73482,22.69561],[106.6973,22.6306],[106.68052,22.57899],[106.64665,22.56844],[106.60751,22.60972],[106.56895,22.57467],[106.5333,22.40329],[106.49646,22.38456],[106.39821,22.37862],[106.28594,22.44089],[106.22577,22.43454],[106.19327,22.40616],[106.13778,22.43246],[106.13231,22.4802],[106.10778,22.53081],[106.08292,22.54188],[105.99622,22.52472],[105.90937,22.48025],[105.84338,22.48197],[105.81564,22.50529],[105.76205,22.63096],[105.77716,22.70585],[105.72436,22.72382],[105.64774,22.6778],[105.56807,22.59223],[105.51989,22.66328],[105.48928,22.73017],[105.45123,22.77526],[105.30293,22.85467],[105.30151,22.87649],[105.35898,22.91453],[105.43283,23.00022],[105.47848,23.00146],[105.4977,23.02457],[105.50972,23.08723],[105.53481,23.09942]]]}},{"type":"Feature","properties":{"name":"Kiên Giang","name_local":"Kiên Giang","iso_3166_2":"VN-47","hc-key":"vn-kg"},"geometry":{"type":"MultiPolygon","coordinates":[[[[104.00995,10.02997],[103.98338,10.15816],[103.93758,10.26582],[103.85747,10.32149],[103.84626,10.37194],[103.9331,10.36678],[104.0045,10.45161],[104.08194,10.37133],[104.08505,10.24853],[104.04676,10.15153],[104.03316,10.09554],[104.05113,10.06967],[104.05131,10.00826],[104.00995,10.02997]]],[[[104.83358,9.53462],[104.85686,9.73799],[104.8926,9.85128],[104.96967,9.85403],[104.99306,9.88815],[105.07703,9.94409],[105.11279,9.85674],[105.10732,9.95227],[105.08806,9.99732],[105.0027,10.0915],[104.96413,10.10651],[104.90078,10.09694],[104.8691,10.11604],[104.80431,10.20745],[104.7726,10.22653],[104.70785,10.22239],[104.65145,10.14454],[104.60736,10.15405],[104.58931,10.26047],[104.5355,10.30953],[104.49958,10.37089],[104.52986,10.39959],[104.45407,10.38037],[104.45125,10.41994],[104.49397,10.4282],[104.5545,10.51836],[104.62619,10.53346],[104.72412,10.52128],[104.88828,10.38218],[105.24104,10.19923],[105.32364,10.14184],[105.42269,10.04346],[105.51893,9.95189],[105.5285,9.9082],[105.50361,9.83454],[105.38789,9.72688],[105.36171,9.68323],[105.39329,9.64226],[105.39186,9.5863],[105.30662,9.60549],[105.29285,9.58776],[105.31066,9.51541],[105.28175,9.47176],[105.29821,9.42535],[105.28032,9.40625],[105.24047,9.4172],[105.02332,9.52783],[104.96969,9.53056],[104.87346,9.50734],[104.83358,9.53462]]]]}},{"type":"Feature","properties":{"name":"Lào Cai","name_local":"Lào Cai","iso_3166_2":"VN-02","hc-key":"vn-lo"},"geometry":{"type":"Polygon","coordinates":[[[103.5505,22.64802],[103.54417,22.69158],[103.59038,22.76831],[103.64739,22.79879],[103.72607,22.7163],[103.79415,22.65958],[103.86679,22.57561],[103.89473,22.56899],[103.91702,22.5337],[103.95977,22.50672],[103.98603,22.52733],[103.98572,22.56959],[104.0073,22.6297],[104.02429,22.71976],[104.07382,22.78275],[104.21322,22.82439],[104.24116,22.82453],[104.22816,22.78357],[104.24904,22.72779],[104.34035,22.68593],[104.36235,22.69284],[104.38159,22.66156],[104.42276,22.65081],[104.47291,22.59373],[104.44077,22.55409],[104.48242,22.40565],[104.54997,22.37041],[104.59405,22.33099],[104.59432,22.23966],[104.62795,22.25746],[104.64574,22.17298],[104.6092,22.15381],[104.55377,22.09505],[104.4746,22.14389],[104.39854,22.13545],[104.38114,22.09994],[104.44009,21.98837],[104.43592,21.93382],[104.3937,21.89823],[104.3513,21.90625],[104.23268,21.96026],[104.2053,21.89197],[104.13213,21.91478],[104.06927,21.92125],[103.98416,21.97391],[103.91346,21.8535],[103.95187,21.79241],[103.92468,21.71999],[103.87808,21.70877],[103.83413,21.73301],[103.71043,21.86158],[103.64775,22.0042],[103.605,22.042],[103.56999,22.03352],[103.58523,22.11816],[103.62267,22.17981],[103.6999,22.21588],[103.771,22.28731],[103.80112,22.3625],[103.74785,22.41935],[103.65259,22.41722],[103.58773,22.4521],[103.57863,22.482],[103.61054,22.51772],[103.60259,22.57898],[103.5505,22.64802]]]}},{"type":"Feature","properties":{"name":"Điện Biên","name_local":"Điện Biên","iso_3166_2":"VN-71","hc-key":"vn-db"},"geometry":{"type":"Polygon","coordinates":[[[103.2265,20.82673],[103.14652,20.84632],[103.11581,20.8678],[103.06859,20.93133],[103.01492,21.0411],[102.95212,21.06897],[102.91457,21.15846],[102.88976,21.16633],[102.88746,21.22626],[102.85075,21.25168],[102.80128,21.25513],[102.82845,21.28546],[102.8747,21.30513],[102.88368,21.38837],[102.91643,21.4392],[102.90459,21.45268],[102.84967,21.42609],[102.89525,21.49481],[102.97422,21.57482],[102.96029,21.63325],[102.96225,21.70141],[102.94717,21.73665],[102.86449,21.70563],[102.83517,21.71615],[102.8263,21.82095],[102.78983,21.82047],[102.78669,21.74003],[102.7526,21.68098],[102.72084,21.66147],[102.65093,21.65778],[102.62935,21.72968],[102.63422,21.78834],[102.59149,21.9008],[102.56042,21.92487],[102.47808,21.95768],[102.46572,21.99564],[102.48279,22.02178],[102.42216,22.06171],[102.38899,22.11703],[102.28653,22.19982],[102.22599,22.22876],[102.15422,22.30516],[102.11866,22.39714],[102.16496,22.4252],[102.21799,22.41114],[102.25296,22.49483],[102.32489,22.56551],[102.37896,22.57593],[102.45842,22.56223],[102.5082,22.56709],[102.56762,22.52441],[102.64538,22.43565],[102.70141,22.41466],[102.77702,22.35986],[102.81754,22.29773],[102.82587,22.23244],[102.8453,22.20545],[102.90825,22.20355],[102.92212,22.15603],[102.95167,22.13597],[103.04072,22.14796],[103.09519,22.12272],[103.13956,22.08507],[103.17753,22.08822],[103.2643,22.04828],[103.26682,22.08102],[103.3245,22.14976],[103.36097,22.15831],[103.40072,22.1369],[103.41597,22.08117],[103.45892,22.03115],[103.46228,21.99029],[103.4976,21.96745],[103.55101,21.88752],[103.55673,21.75399],[103.5692,21.67368],[103.56107,21.61091],[103.52659,21.56154],[103.46598,21.50511],[103.43606,21.4435],[103.37823,21.40615],[103.40232,21.33278],[103.43899,21.3045],[103.44957,21.26643],[103.44009,21.19956],[103.42162,21.15986],[103.43706,21.07277],[103.37919,21.05314],[103.31789,21.08117],[103.28607,21.06995],[103.29094,21.02502],[103.24375,20.9632],[103.22864,20.89081],[103.2265,20.82673]]]}},{"type":"Feature","properties":{"name":"Lạng Sơn","name_local":"Lạng Sơn","iso_3166_2":"VN-09","hc-key":"vn-ls"},"geometry":{"type":"Polygon","coordinates":[[[106.5333,22.40329],[106.55597,22.33221],[106.61739,22.32343],[106.63906,22.29732],[106.66308,22.22348],[106.63928,22.19101],[106.67178,22.09256],[106.64872,21.99603],[106.67463,21.9617],[106.72193,22.00754],[106.78145,21.97556],[106.86463,21.96783],[106.92093,21.91676],[106.97083,21.93524],[107.00871,21.92797],[107.02135,21.89239],[106.98711,21.84511],[107.00269,21.81085],[107.06523,21.79645],[107.17197,21.71469],[107.21265,21.70462],[107.27265,21.71879],[107.30279,21.6884],[107.33365,21.61303],[107.24097,21.55571],[107.22452,21.52732],[107.24573,21.48616],[107.24207,21.43715],[107.2154,21.40617],[107.12758,21.37051],[107.06488,21.36039],[107.02436,21.37588],[106.99621,21.44572],[106.92196,21.44522],[106.85768,21.54135],[106.8394,21.59334],[106.8117,21.59228],[106.74706,21.54936],[106.68208,21.59909],[106.63118,21.60914],[106.55953,21.58666],[106.52266,21.54474],[106.48984,21.47007],[106.46033,21.43081],[106.39899,21.41088],[106.35253,21.42353],[106.29186,21.47717],[106.16548,21.51763],[106.16736,21.57078],[106.20867,21.63183],[106.25572,21.67783],[106.25296,21.69557],[106.18077,21.78606],[106.14152,21.80542],[106.11743,21.89828],[106.11344,21.94874],[106.11997,22.03593],[106.13339,22.06856],[106.19078,22.11177],[106.23981,22.19864],[106.25941,22.26255],[106.22039,22.32145],[106.19327,22.40616],[106.22577,22.43454],[106.28594,22.44089],[106.39821,22.37862],[106.49646,22.38456],[106.5333,22.40329]]]}},{"type":"Feature","properties":{"name":"Thanh Hóa","name_local":"Thanh Hóa","iso_3166_2":"VN-21","hc-key":"vn-th"},"geometry":{"type":"Polygon","coordinates":[[[106.03416,19.99568],[105.95585,19.92522],[105.957,19.87613],[105.93522,19.84897],[105.92913,19.7931],[105.86708,19.77296],[105.92905,19.77947],[105.8956,19.72101],[105.8668,19.72115],[105.82608,19.64225],[105.80791,19.46098],[105.78315,19.39428],[105.81289,19.30687],[105.80555,19.27418],[105.764,19.29345],[105.69941,19.30189],[105.63214,19.36214],[105.58625,19.3882],[105.53473,19.45381],[105.50747,19.47025],[105.43702,19.46907],[105.40111,19.48416],[105.35666,19.54016],[105.31784,19.54569],[105.27176,19.51985],[105.26186,19.61941],[105.18998,19.68769],[105.14685,19.75727],[105.13538,19.81046],[105.18013,19.89088],[105.15132,19.91545],[105.06339,19.94141],[105.01436,19.97006],[104.94513,19.99187],[104.94366,20.06686],[104.95664,20.09141],[104.90465,20.13503],[104.90751,20.17594],[104.81937,20.22087],[104.69085,20.19614],[104.6576,20.21244],[104.65745,20.27926],[104.682,20.28748],[104.68045,20.34066],[104.61241,20.37734],[104.57616,20.41407],[104.43299,20.41093],[104.35911,20.43931],[104.36627,20.45842],[104.424,20.49544],[104.44556,20.53505],[104.4963,20.51203],[104.54254,20.53533],[104.60746,20.61867],[104.61464,20.64322],[104.64361,20.64192],[104.72773,20.58481],[104.77697,20.57534],[104.84352,20.62586],[104.93912,20.59047],[105.06654,20.57547],[105.1375,20.59042],[105.165,20.57676],[105.2127,20.51808],[105.3081,20.45658],[105.45545,20.38535],[105.54215,20.36738],[105.75531,20.19615],[105.86184,20.13431],[105.91949,20.11902],[105.98275,20.07778],[106.0505,20.06648],[106.07048,20.03364],[106.03416,19.99568]]]}},{"type":"Feature","properties":{"name":"Bắc Kạn","name_local":"Bắc Kạn","iso_3166_2":"VN-","hc-key":"vn-307"},"geometry":{"type":"Polygon","coordinates":[[[105.55817,21.9502],[105.5452,21.9966],[105.50886,22.05533],[105.48873,22.15491],[105.49498,22.26804],[105.52015,22.34021],[105.5894,22.42994],[105.60863,22.4694],[105.60737,22.51711],[105.56807,22.59223],[105.64774,22.6778],[105.72436,22.72382],[105.77716,22.70585],[105.76205,22.63096],[105.81564,22.50529],[105.84338,22.48197],[105.90937,22.48025],[105.99622,22.52472],[106.08292,22.54188],[106.10778,22.53081],[106.13231,22.4802],[106.13778,22.43246],[106.19327,22.40616],[106.22039,22.32145],[106.25941,22.26255],[106.23981,22.19864],[106.19078,22.11177],[106.13339,22.06856],[106.11997,22.03593],[106.11344,21.94874],[106.02558,21.92205],[106.00196,21.88812],[105.89933,21.826],[105.83941,21.81405],[105.80131,21.78834],[105.77846,21.88251],[105.77314,21.97796],[105.71786,22.03001],[105.62712,22.00994],[105.58451,21.95693],[105.55817,21.9502]]]}},{"type":"Feature","properties":{"name":"Tuyên Quang","name_local":"Tuyên Quang","iso_3166_2":"VN-07","hc-key":"vn-tq"},"geometry":{"type":"Polygon","coordinates":[[[105.56807,22.59223],[105.60737,22.51711],[105.60863,22.4694],[105.5894,22.42994],[105.52015,22.34021],[105.49498,22.26804],[105.48873,22.15491],[105.50886,22.05533],[105.5452,21.9966],[105.55817,21.9502],[105.53448,21.86712],[105.51772,21.67223],[105.52186,21.60814],[105.57701,21.54388],[105.53904,21.52083],[105.46028,21.49653],[105.39327,21.49534],[105.31756,21.51458],[105.23322,21.61834],[105.17642,21.66749],[105.11227,21.70435],[105.08604,21.75072],[105.10066,21.7957],[105.07587,21.83798],[104.99702,21.92388],[104.99848,21.97433],[104.9824,22.00704],[104.88438,22.0888],[104.84772,22.17057],[104.92964,22.26741],[104.93986,22.33285],[104.95744,22.35331],[105.02045,22.3424],[105.0483,22.35739],[105.08207,22.45962],[105.13493,22.52502],[105.17029,22.63677],[105.19674,22.64764],[105.34348,22.60105],[105.5005,22.58155],[105.56807,22.59223]]]}},{"type":"Feature","properties":{"name":"Bình Dương","name_local":"Bình Dương","iso_3166_2":"VN-57","hc-key":"vn-bi"},"geometry":{"type":"Polygon","coordinates":[[[106.46399,11.55352],[106.51493,11.50823],[106.52172,11.48501],[106.60174,11.44911],[106.61962,11.43128],[106.6138,11.37947],[106.648,11.31653],[106.68832,11.35723],[106.72143,11.34612],[106.71843,11.30658],[106.77804,11.33488],[106.81256,11.32921],[106.93251,11.2848],[106.96428,11.28323],[106.93343,11.21523],[106.97424,11.12222],[106.95452,11.0637],[106.91287,11.02987],[106.87834,11.02735],[106.82742,11.05495],[106.78444,11.02656],[106.78693,10.98016],[106.8321,10.91715],[106.83605,10.88711],[106.79883,10.89416],[106.73523,10.87406],[106.71181,10.88101],[106.61865,11.00975],[106.57468,11.04955],[106.51436,11.1358],[106.43003,11.12394],[106.4219,11.15672],[106.38202,11.19647],[106.34645,11.27304],[106.34263,11.344],[106.37902,11.4366],[106.43048,11.49366],[106.46399,11.55352]]]}},{"type":"Feature","properties":{"name":"Cần Thơ","name_local":"Cần Thơ","iso_3166_2":"VN-CT","hc-key":"vn-333"},"geometry":{"type":"Polygon","coordinates":[[[105.24104,10.19923],[105.26587,10.23469],[105.33342,10.27284],[105.36782,10.23459],[105.42988,10.2741],[105.47398,10.2754],[105.49474,10.33405],[105.53344,10.40222],[105.58315,10.44717],[105.63135,10.41706],[105.70025,10.40736],[105.79928,10.31979],[105.84885,10.30193],[105.88175,10.2418],[105.91062,10.22125],[105.90911,10.17213],[105.84979,10.13817],[105.76859,10.16293],[105.73833,10.18347],[105.70386,10.16717],[105.69274,10.12353],[105.63072,10.10182],[105.52464,10.0788],[105.42269,10.04346],[105.32364,10.14184],[105.24104,10.19923]]]}}]}